     2.100          NAVIGATION                              RINEX VERSION / TYPE
fic2rin                                 03/17/2009 01:08:58 PGM / RUN BY / DATE
                                                            END OF HEADER
 6 09  3 16 18  0  0.0  .351876951754D-04  .188720150618D-10  .000000000000D+00
     .420000000000D+02 -.248750000000D+02  .532129308179D-08  .301911582952D+01
    -.144727528095D-05  .581341888756D-02  .706501305103D-05  .515370677757D+04
     .151200000000D+06  .158324837685D-06 -.234149936690D+00  .130385160446D-07
     .934057851990D+00  .226250000000D+03 -.143013660718D+01 -.824141471657D-08
    -.113576159474D-09  .100000000000D+01  .152300000000D+04  .000000000000D+00
     .240000000000D+01  .000000000000D+00 -.465661287308D-08  .420000000000D+02
     .144006000000D+06  .400000000000D+01
 7 09  3 16 18  0  0.0  .216257758439D-04 -.454747350886D-12  .000000000000D+00
     .950000000000D+02 -.522812500000D+02  .408302721733D-08 -.918224892964D+00
    -.281818211079D-05  .234694185201D-02  .814907252789D-05  .515367830086D+04
     .151200000000D+06 -.409781932831D-07 -.228379454571D+01 -.137835741043D-06
     .966443221451D+00  .227312500000D+03  .291614607152D+01 -.779925344164D-08
     .102147111980D-09  .100000000000D+01  .152300000000D+04  .000000000000D+00
     .240000000000D+01  .000000000000D+00 -.107102096081D-07  .950000000000D+02
     .144006000000D+06  .400000000000D+01
 8 09  3 16 18  0  0.0 -.194632448256D-03 -.147792889038D-11  .000000000000D+00
     .650000000000D+02 -.508437500000D+02  .363658004958D-08 -.160347692044D+01
    -.283867120743D-05  .104832146317D-01  .834278762341D-05  .515367234421D+04
     .151200000000D+06 -.106170773506D-06 -.222492849819D+01 -.968575477600D-07
     .987593056758D+00  .234156250000D+03  .298327636857D+01 -.758567311659D-08
     .295726603914D-09  .100000000000D+01  .152300000000D+04  .000000000000D+00
     .340000000000D+01  .000000000000D+00 -.465661287308D-08  .650000000000D+02
     .144006000000D+06  .400000000000D+01
 9 09  3 16 18  0  0.0  .457414425910D-04  .204636307899D-11  .000000000000D+00
     .760000000000D+02 -.438750000000D+02  .390266256156D-08 -.184931028999D+01
    -.214204192162D-05  .202439907007D-01  .838749110699D-05  .515364442635D+04
     .151200000000D+06  .391155481339D-06 -.231831846149D+01  .286847352982D-06
     .975412176164D+00  .220406250000D+03  .146443272613D+01 -.755317176278D-08
     .667884962947D-10  .100000000000D+01  .152300000000D+04  .000000000000D+00
     .240000000000D+01  .000000000000D+00 -.558793544769D-08  .760000000000D+02
     .144006000000D+06  .400000000000D+01
11 09  3 16 18  0  0.0  .444101169705D-05 -.125055521494D-11  .000000000000D+00
     .870000000000D+02  .335937500000D+02  .618918637588D-08 -.106147667812D+01
     .179745256901D-05  .923944893293D-02  .906363129616D-05  .515367490768D+04
     .151200000000D+06  .189989805222D-06  .648864109760D+00  .391155481339D-07
     .889995142727D+00  .164781250000D+03  .689893162877D+00 -.871071997931D-08
    -.200365488884D-09  .100000000000D+01  .152300000000D+04  .000000000000D+00
     .240000000000D+01  .000000000000D+00 -.121071934700D-07  .870000000000D+02
     .144006000000D+06  .400000000000D+01
12 09  3 16 18  0  0.0 -.305535737425D-03  .432009983342D-11  .000000000000D+00
     .410000000000D+02 -.122500000000D+02  .444911389488D-08 -.767057900298D+00
    -.650063157082D-06  .330879131798D-02  .705011188984D-05  .515369343376D+04
     .151200000000D+06 -.160187482834D-06 -.123187755447D+01 -.298023223877D-07
     .966044220785D+00  .247906250000D+03 -.789694785980D+00 -.793890211571D-08
     .386444668400D-09  .100000000000D+01  .152300000000D+04  .000000000000D+00
     .240000000000D+01  .000000000000D+00 -.121071934700D-07  .410000000000D+02
     .144006000000D+06  .400000000000D+01
14 09  3 16 18  0  0.0 -.140048563480D-03  .557065504836D-11  .000000000000D+00
     .830000000000D+02 -.485937500000D+02  .390587698117D-08  .121361113509D+01
    -.251084566116D-05  .435982597992D-02  .454485416412D-05  .515358616447D+04
     .151200000000D+06 -.109896063805D-06  .298894052112D+01  .316649675369D-07
     .988918377151D+00  .309187500000D+03 -.211360081564D+01 -.800533345427D-08
    -.297155234851D-09  .100000000000D+01  .152300000000D+04  .000000000000D+00
     .240000000000D+01  .000000000000D+00 -.931322574615D-08  .830000000000D+02
     .144006000000D+06  .400000000000D+01
16 09  3 16 18  0  0.0  .671092420816D-04 -.295585778076D-11  .000000000000D+00
     .210000000000D+02 -.177500000000D+02  .444161358246D-08  .299989493655D+01
    -.815838575363D-06  .519924727269D-02  .672042369843D-05  .515377836800D+04
     .151200000000D+06 -.260770320892D-07 -.121503260870D+01  .763684511185D-07
     .967548211752D+00  .252375000000D+03 -.382834304711D+00 -.788425698238D-08
     .406445501515D-09  .100000000000D+01  .152300000000D+04  .000000000000D+00
     .240000000000D+01  .000000000000D+00 -.977888703346D-08  .210000000000D+02
     .144006000000D+06  .400000000000D+01
17 09  3 16 18  0  0.0  .504162162542D-04  .136424205266D-11  .000000000000D+00
     .630000000000D+02 -.199375000000D+02  .472448250795D-08  .190842983049D+01
    -.990927219391D-06  .432671059389D-02  .751577317715D-05  .515365048599D+04
     .151200000000D+06 -.130385160446D-06 -.172906856482D+00  .100582838058D-06
     .960065368222D+00  .230093750000D+03 -.270654055158D+01 -.805033532878D-08
    -.860750139413D-10  .100000000000D+01  .152300000000D+04  .000000000000D+00
     .240000000000D+01  .000000000000D+00 -.102445483208D-07  .630000000000D+02
     .144006000000D+06  .400000000000D+01
18 09  3 16 18  0  0.0 -.742455013096D-04  .352429196937D-11  .000000000000D+00
     .800000000000D+01  .772812500000D+02  .497020702907D-08  .313322352894D+01
     .391155481339D-05  .999942992348D-02  .408664345741D-05  .515376353645D+04
     .151200000000D+06 -.931322574615D-08  .193628962338D+01 -.145286321640D-06
     .943085054249D+00  .290312500000D+03 -.243523817472D+01 -.823677166603D-08
    -.189293599124D-10  .100000000000D+01  .152300000000D+04  .000000000000D+00
     .240000000000D+01  .000000000000D+00 -.107102096081D-07  .800000000000D+01
     .144006000000D+06  .400000000000D+01
19 09  3 16 18  0  0.0  .305119901896D-04 -.795807864051D-12  .000000000000D+00
     .470000000000D+02 -.215000000000D+02  .475376944215D-08  .120988618286D+01
    -.111013650894D-05  .533797580283D-02  .764429569244D-05  .515357330513D+04
     .151200000000D+06  .102445483208D-06 -.116663134962D+00  .391155481339D-07
     .957814319120D+00  .230000000000D+03 -.378980342121D+00 -.798247535928D-08
    -.196436753808D-09  .100000000000D+01  .152300000000D+04  .000000000000D+00
     .240000000000D+01  .000000000000D+00 -.149011611938D-07  .470000000000D+02
     .144006000000D+06  .400000000000D+01
20 09  3 16 18  0  0.0  .879974104464D-04 -.113686837722D-11  .000000000000D+00
     .380000000000D+02  .853437500000D+02  .503735268310D-08 -.298473050621D+01
     .452436506748D-05  .403258972801D-02  .489875674248D-05  .515365881157D+04
     .151200000000D+06  .108033418655D-06  .188246868145D+01 -.577419996262D-07
     .942688079725D+00  .273687500000D+03  .132532485246D+01 -.839499254228D-08
     .225009372544D-10  .100000000000D+01  .152300000000D+04  .000000000000D+00
     .240000000000D+01  .000000000000D+00 -.651925802231D-08  .380000000000D+02
     .144006000000D+06  .400000000000D+01
21 09  3 16 18  0  0.0  .241566449404D-04 -.193267624127D-11  .000000000000D+00
     .690000000000D+02  .585000000000D+02  .508414034628D-08 -.184946745566D+01
     .272691249847D-05  .148248695768D-01  .869669020176D-05  .515363401604D+04
     .151200000000D+06  .189989805222D-06  .877436220695D+00 -.132247805595D-06
     .934526499260D+00  .196375000000D+03 -.263476896845D+01 -.806033574534D-08
     .903609067516D-10  .100000000000D+01  .152300000000D+04  .000000000000D+00
     .240000000000D+01  .000000000000D+00 -.116415321827D-07  .690000000000D+02
     .144006000000D+06  .400000000000D+01
22 09  3 16 18  0  0.0  .203362666070D-03 -.795807864051D-12  .000000000000D+00
     .740000000000D+02  .821875000000D+02  .509199781643D-08  .205522799387D+01
     .414811074734D-05  .485452229623D-02  .393018126488D-05  .515366596031D+04
     .151200000000D+06  .558793544769D-07  .194213240262D+01 -.135973095894D-06
     .940747494023D+00  .293937500000D+03 -.184018638884D+01 -.840320717017D-08
     .750031241812D-11  .100000000000D+01  .152300000000D+04  .000000000000D+00
     .485000000000D+01  .000000000000D+00 -.181607902050D-07  .740000000000D+02
     .144006000000D+06  .400000000000D+01
23 09  3 16 18  0  0.0  .388407148421D-03  .454747350886D-12  .000000000000D+00
     .450000000000D+02 -.347812500000D+02  .429910764652D-08  .677943164403D+00
    -.201165676117D-05  .584967865143D-02  .370666384697D-05  .515363691711D+04
     .151200000000D+06  .651925802231D-07  .295770867573D+01  .298023223877D-07
     .970920951829D+00  .309218750000D+03  .287539271263D+01 -.821891377932D-08
    -.293583657509D-09  .100000000000D+01  .152300000000D+04  .000000000000D+00
     .240000000000D+01  .000000000000D+00 -.200234353542D-07  .450000000000D+02
     .144006000000D+06  .400000000000D+01
24 09  3 16 18  0  0.0  .173595733941D-03  .318323145621D-11  .000000000000D+00
     .270000000000D+02  .621875000000D+02  .464983654150D-08  .306027117781D+01
     .325031578541D-05  .685958610848D-02  .934489071369D-05  .515367782211D+04
     .151200000000D+06 -.353902578354D-07  .908360053071D+00  .139698386192D-06
     .951140138667D+00  .194031250000D+03 -.640461964120D+00 -.785747015231D-08
    -.871464871438D-10  .100000000000D+01  .152300000000D+04  .000000000000D+00
     .340000000000D+01  .000000000000D+00 -.139698386192D-08  .270000000000D+02
     .144006000000D+06  .400000000000D+01
